YOTSUBA-KULOVER         
1 65941U 98067XN  26048.54861156  .00126617  00000+0  88498-3 0  9993
2 65941  51.6250 161.1458 0004934 320.8194  39.2447 15.73359880 20324
BOTAN                   
1 65942U 98067XP  26048.52453849  .00459962  92604-4  13674-2 0  9999
2 65942  51.6160 156.4110 0009065 340.4312  19.6345 15.91838464 20382
E-KAGAKU-1              
1 65943U 98067XQ  26048.55011848  .00125033  00000+0  87978-3 0  9994
2 65943  51.6276 161.1693 0004935 333.6914  26.3833 15.73209211 20326
HRC MONOBLOCK CAMERA    
1 66052U 98067XR  26048.59921257  .00043526  00000+0  52998-3 0  9994
2 66052  51.6290 166.7554 0002231  17.2084 342.8984 15.60070882 19250
HTV-X1                  
1 66174U 25241A   26048.82815417  .00009688  00000+0  18560-3 0  9997
2 66174  51.6322 170.5300 0010976 108.9064 251.3115 15.48671179   515
SZ-21 MODULE            
1 66515U 25246C   26048.81600336  .00031109  00000+0  28608-3 0  9999
2 66515  41.4766 325.5514 0001949 296.4843  63.5798 15.66996857 14956
SHENZHOU-22             
1 66645U 25272A   26048.93637015  .00024301  00000+0  29745-3 0  9998
2 66645  41.4680 328.2755 0004286 129.9510 230.1706 15.59803307267646
SOYUZ-MS 28             
1 66664U 25275A   26048.82815417  .00009688  00000+0  18560-3 0  9998
2 66664  51.6322 170.5300 0010976 108.9064 251.3115 15.48671179  1284
DUPLEX                  
1 66906U 98067XS  26048.54149847  .00033568  00000+0  49956-3 0  9999
2 66906  51.6299 170.1197 0001433  66.3998 293.7143 15.54812852 11999
ISS OBJECT XT           
1 66907U 98067XT  26048.54740387  .00101826  00000+0  10641-2 0  9997
2 66907  51.6272 167.9043 0002590 325.1808  34.9017 15.63657605 12029
ISS OBJECT XU           
1 66908U 98067XU  26048.35489515  .00129139  00000+0  13425-2 0  9990
2 66908  51.6262 168.8668 0002603 330.7094  29.3754 15.63675292 11999
SILVERSAT               
1 66909U 98067XV  26048.57639726  .00121901  00000+0  11824-2 0  9996
2 66909  51.6276 167.3464 0003330 324.3396  35.7377 15.65453016 12033
