CCSDS_OMM_VERS = 2.0
CREATION_DATE  = 
ORIGINATOR     = 

OBJECT_NAME    = YOTSUBA-KULOVER
OBJECT_ID      = 1998-067XN
CENTER_NAME    = EARTH
REF_FRAME      = TEME
TIME_SYSTEM    = UTC
MEAN_ELEMENT_THEORY = SGP/SGP4

EPOCH          = 2026-02-17T13:10:00.038784
MEAN_MOTION    = 15.73359880
ECCENTRICITY   = .00049344
INCLINATION    = 51.6250
RA_OF_ASC_NODE = 161.1458
ARG_OF_PERICENTER = 320.8194
MEAN_ANOMALY   = 39.2447

EPHEMERIS_TYPE = 0
CLASSIFICATION_TYPE = U
NORAD_CAT_ID   = 65941
ELEMENT_SET_NO = 999
REV_AT_EPOCH   = 2032
BSTAR          = .88498132E-3
MEAN_MOTION_DOT = .126617E-2
MEAN_MOTION_DDOT = 0

CCSDS_OMM_VERS = 2.0
CREATION_DATE  = 
ORIGINATOR     = 

OBJECT_NAME    = BOTAN
OBJECT_ID      = 1998-067XP
CENTER_NAME    = EARTH
REF_FRAME      = TEME
TIME_SYSTEM    = UTC
MEAN_ELEMENT_THEORY = SGP/SGP4

EPOCH          = 2026-02-17T12:35:20.125536
MEAN_MOTION    = 15.91838464
ECCENTRICITY   = .0009065
INCLINATION    = 51.6160
RA_OF_ASC_NODE = 156.4110
ARG_OF_PERICENTER = 340.4312
MEAN_ANOMALY   = 19.6345

EPHEMERIS_TYPE = 0
CLASSIFICATION_TYPE = U
NORAD_CAT_ID   = 65942
ELEMENT_SET_NO = 999
REV_AT_EPOCH   = 2038
BSTAR          = .13673841E-2
MEAN_MOTION_DOT = .459962E-2
MEAN_MOTION_DDOT = .92604119E-4

CCSDS_OMM_VERS = 2.0
CREATION_DATE  = 
ORIGINATOR     = 

OBJECT_NAME    = E-KAGAKU-1
OBJECT_ID      = 1998-067XQ
CENTER_NAME    = EARTH
REF_FRAME      = TEME
TIME_SYSTEM    = UTC
MEAN_ELEMENT_THEORY = SGP/SGP4

EPOCH          = 2026-02-17T13:12:10.236672
MEAN_MOTION    = 15.73209211
ECCENTRICITY   = .00049355
INCLINATION    = 51.6276
RA_OF_ASC_NODE = 161.1693
ARG_OF_PERICENTER = 333.6914
MEAN_ANOMALY   = 26.3833

EPHEMERIS_TYPE = 0
CLASSIFICATION_TYPE = U
NORAD_CAT_ID   = 65943
ELEMENT_SET_NO = 999
REV_AT_EPOCH   = 2032
BSTAR          = .87977982E-3
MEAN_MOTION_DOT = .125033E-2
MEAN_MOTION_DDOT = 0

CCSDS_OMM_VERS = 2.0
CREATION_DATE  = 
ORIGINATOR     = 

OBJECT_NAME    = HRC MONOBLOCK CAMERA
OBJECT_ID      = 1998-067XR
CENTER_NAME    = EARTH
REF_FRAME      = TEME
TIME_SYSTEM    = UTC
MEAN_ELEMENT_THEORY = SGP/SGP4

EPOCH          = 2026-02-17T14:22:51.966048
MEAN_MOTION    = 15.60070882
ECCENTRICITY   = .0002231
INCLINATION    = 51.6290
RA_OF_ASC_NODE = 166.7554
ARG_OF_PERICENTER = 17.2084
MEAN_ANOMALY   = 342.8984

EPHEMERIS_TYPE = 0
CLASSIFICATION_TYPE = U
NORAD_CAT_ID   = 66052
ELEMENT_SET_NO = 999
REV_AT_EPOCH   = 1925
BSTAR          = .52998E-3
MEAN_MOTION_DOT = .43526E-3
MEAN_MOTION_DDOT = 0

CCSDS_OMM_VERS = 2.0
CREATION_DATE  = 
ORIGINATOR     = 

OBJECT_NAME    = HTV-X1
OBJECT_ID      = 2025-241A
CENTER_NAME    = EARTH
REF_FRAME      = TEME
TIME_SYSTEM    = UTC
MEAN_ELEMENT_THEORY = SGP/SGP4

EPOCH          = 2026-02-17T19:52:32.520288
MEAN_MOTION    = 15.48671179
ECCENTRICITY   = .00109766
INCLINATION    = 51.6322
RA_OF_ASC_NODE = 170.5300
ARG_OF_PERICENTER = 108.9064
MEAN_ANOMALY   = 251.3115

EPHEMERIS_TYPE = 0
CLASSIFICATION_TYPE = U
NORAD_CAT_ID   = 66174
ELEMENT_SET_NO = 999
REV_AT_EPOCH   = 51
BSTAR          = .18560473E-3
MEAN_MOTION_DOT = .9688E-4
MEAN_MOTION_DDOT = 0

CCSDS_OMM_VERS = 2.0
CREATION_DATE  = 
ORIGINATOR     = 

OBJECT_NAME    = SZ-21 MODULE
OBJECT_ID      = 2025-246C
CENTER_NAME    = EARTH
REF_FRAME      = TEME
TIME_SYSTEM    = UTC
MEAN_ELEMENT_THEORY = SGP/SGP4

EPOCH          = 2026-02-17T19:35:02.690304
MEAN_MOTION    = 15.66996857
ECCENTRICITY   = .00019498
INCLINATION    = 41.4766
RA_OF_ASC_NODE = 325.5514
ARG_OF_PERICENTER = 296.4843
MEAN_ANOMALY   = 63.5798

EPHEMERIS_TYPE = 0
CLASSIFICATION_TYPE = U
NORAD_CAT_ID   = 66515
ELEMENT_SET_NO = 999
REV_AT_EPOCH   = 1495
BSTAR          = .28607767E-3
MEAN_MOTION_DOT = .31109E-3
MEAN_MOTION_DDOT = 0

CCSDS_OMM_VERS = 2.0
CREATION_DATE  = 
ORIGINATOR     = 

OBJECT_NAME    = SHENZHOU-22
OBJECT_ID      = 2025-272A
CENTER_NAME    = EARTH
REF_FRAME      = TEME
TIME_SYSTEM    = UTC
MEAN_ELEMENT_THEORY = SGP/SGP4

EPOCH          = 2026-02-17T22:28:22.380960
MEAN_MOTION    = 15.59803307
ECCENTRICITY   = .00042862
INCLINATION    = 41.4680
RA_OF_ASC_NODE = 328.2755
ARG_OF_PERICENTER = 129.9510
MEAN_ANOMALY   = 230.1706

EPHEMERIS_TYPE = 0
CLASSIFICATION_TYPE = U
NORAD_CAT_ID   = 66645
ELEMENT_SET_NO = 999
REV_AT_EPOCH   = 26764
BSTAR          = .29745033E-3
MEAN_MOTION_DOT = .24301E-3
MEAN_MOTION_DDOT = 0

CCSDS_OMM_VERS = 2.0
CREATION_DATE  = 
ORIGINATOR     = 

OBJECT_NAME    = SOYUZ-MS 28
OBJECT_ID      = 2025-275A
CENTER_NAME    = EARTH
REF_FRAME      = TEME
TIME_SYSTEM    = UTC
MEAN_ELEMENT_THEORY = SGP/SGP4

EPOCH          = 2026-02-17T19:52:32.520288
MEAN_MOTION    = 15.48671179
ECCENTRICITY   = .00109766
INCLINATION    = 51.6322
RA_OF_ASC_NODE = 170.5300
ARG_OF_PERICENTER = 108.9064
MEAN_ANOMALY   = 251.3115

EPHEMERIS_TYPE = 0
CLASSIFICATION_TYPE = U
NORAD_CAT_ID   = 66664
ELEMENT_SET_NO = 999
REV_AT_EPOCH   = 128
BSTAR          = .18560473E-3
MEAN_MOTION_DOT = .9688E-4
MEAN_MOTION_DDOT = 0

CCSDS_OMM_VERS = 2.0
CREATION_DATE  = 
ORIGINATOR     = 

OBJECT_NAME    = DUPLEX
OBJECT_ID      = 1998-067XS
CENTER_NAME    = EARTH
REF_FRAME      = TEME
TIME_SYSTEM    = UTC
MEAN_ELEMENT_THEORY = SGP/SGP4

EPOCH          = 2026-02-17T12:59:45.467808
MEAN_MOTION    = 15.54812852
ECCENTRICITY   = .0001433
INCLINATION    = 51.6299
RA_OF_ASC_NODE = 170.1197
ARG_OF_PERICENTER = 66.3998
MEAN_ANOMALY   = 293.7143

EPHEMERIS_TYPE = 0
CLASSIFICATION_TYPE = U
NORAD_CAT_ID   = 66906
ELEMENT_SET_NO = 999
REV_AT_EPOCH   = 1199
BSTAR          = .49956E-3
MEAN_MOTION_DOT = .33568E-3
MEAN_MOTION_DDOT = 0

CCSDS_OMM_VERS = 2.0
CREATION_DATE  = 
ORIGINATOR     = 

OBJECT_NAME    = ISS OBJECT XT
OBJECT_ID      = 1998-067XT
CENTER_NAME    = EARTH
REF_FRAME      = TEME
TIME_SYSTEM    = UTC
MEAN_ELEMENT_THEORY = SGP/SGP4

EPOCH          = 2026-02-17T13:08:15.694368
MEAN_MOTION    = 15.63657605
ECCENTRICITY   = .000259
INCLINATION    = 51.6272
RA_OF_ASC_NODE = 167.9043
ARG_OF_PERICENTER = 325.1808
MEAN_ANOMALY   = 34.9017

EPHEMERIS_TYPE = 0
CLASSIFICATION_TYPE = U
NORAD_CAT_ID   = 66907
ELEMENT_SET_NO = 999
REV_AT_EPOCH   = 1202
BSTAR          = .10641E-2
MEAN_MOTION_DOT = .101826E-2
MEAN_MOTION_DDOT = 0

CCSDS_OMM_VERS = 2.0
CREATION_DATE  = 
ORIGINATOR     = 

OBJECT_NAME    = ISS OBJECT XU
OBJECT_ID      = 1998-067XU
CENTER_NAME    = EARTH
REF_FRAME      = TEME
TIME_SYSTEM    = UTC
MEAN_ELEMENT_THEORY = SGP/SGP4

EPOCH          = 2026-02-17T08:31:02.940960
MEAN_MOTION    = 15.63675292
ECCENTRICITY   = .00026039
INCLINATION    = 51.6262
RA_OF_ASC_NODE = 168.8668
ARG_OF_PERICENTER = 330.7094
MEAN_ANOMALY   = 29.3754

EPHEMERIS_TYPE = 0
CLASSIFICATION_TYPE = U
NORAD_CAT_ID   = 66908
ELEMENT_SET_NO = 999
REV_AT_EPOCH   = 1199
BSTAR          = .13425231E-2
MEAN_MOTION_DOT = .129139E-2
MEAN_MOTION_DDOT = 0

CCSDS_OMM_VERS = 2.0
CREATION_DATE  = 
ORIGINATOR     = 

OBJECT_NAME    = SILVERSAT
OBJECT_ID      = 1998-067XV
CENTER_NAME    = EARTH
REF_FRAME      = TEME
TIME_SYSTEM    = UTC
MEAN_ELEMENT_THEORY = SGP/SGP4

EPOCH          = 2026-02-17T13:50:00.723264
MEAN_MOTION    = 15.65453016
ECCENTRICITY   = .000333
INCLINATION    = 51.6276
RA_OF_ASC_NODE = 167.3464
ARG_OF_PERICENTER = 324.3396
MEAN_ANOMALY   = 35.7377

EPHEMERIS_TYPE = 0
CLASSIFICATION_TYPE = U
NORAD_CAT_ID   = 66909
ELEMENT_SET_NO = 999
REV_AT_EPOCH   = 1203
BSTAR          = .11824E-2
MEAN_MOTION_DOT = .121901E-2
MEAN_MOTION_DDOT = 0

